start=new Date('2022-07-23T00:00:00.000Z').valueOf();
sats=[{"PERIAPSIS":"546.397","TIME_SYSTEM":"UTC","SITE":"AFETR","ECCENTRICITY":"0.00012520","GP_ID":"208610413","ELEMENT_SET_NO":"999","CLASSIFICATION_TYPE":"U","FILE":"3519360","APOAPSIS":"548.131","EPOCH":"2022-07-22T04:23:57.647040","REV_AT_EPOCH":"7201","RA_OF_ASC_NODE":"11.5441","OBJECT_ID":"2021-027AQ","MEAN_ELEMENT_THEORY":"SGP4","LAUNCH_DATE":"2021-04-07","OBJECT_NAME":"STARLINK-2472","DECAY_DATE":null,"ARG_OF_PERICENTER":"93.9065","REF_FRAME":"TEME","INCLINATION":"53.0566","PERIOD":"95.593","SEMIMAJOR_AXIS":"6925.399","TLE_LINE1":"1 48130U 21027AQ  22203.18330610 -.00000698  00000-0 -27968-4 0  9990","TLE_LINE2":"2 48130  53.0566  11.5441 0001252  93.9065 266.2067 15.06383655 72012","OBJECT_TYPE":"PAYLOAD","CENTER_NAME":"EARTH","MEAN_MOTION_DOT":"-0.00000698","BSTAR":"-0.00002796800000","COUNTRY_CODE":"US","MEAN_MOTION_DDOT":"0.0000000000000","NORAD_CAT_ID":"48130","EPHEMERIS_TYPE":"0","MEAN_MOTION":"15.06383655","MEAN_ANOMALY":"266.2067","RCS_SIZE":"LARGE"},{"TLE_LINE2":"2 48131  53.0555 343.7599 0001548  81.3071 278.8094 15.06404259 72856","TLE_LINE1":"1 48131U 21027AR  22203.80024128  .00001293  00000-0  10566-3 0  9999","OBJECT_TYPE":"PAYLOAD","REF_FRAME":"TEME","ARG_OF_PERICENTER":"81.3071","SEMIMAJOR_AXIS":"6925.336","INCLINATION":"53.0555","PERIOD":"95.592","MEAN_MOTION":"15.06404259","MEAN_ANOMALY":"278.8094","RCS_SIZE":"LARGE","BSTAR":"0.00010566000000","COUNTRY_CODE":"US","MEAN_MOTION_DOT":"0.00001293","CENTER_NAME":"EARTH","NORAD_CAT_ID":"48131","EPHEMERIS_TYPE":"0","MEAN_MOTION_DDOT":"0.0000000000000","GP_ID":"208669525","ECCENTRICITY":"0.00015480","ELEMENT_SET_NO":"999","CLASSIFICATION_TYPE":"U","APOAPSIS":"548.273","FILE":"3519932","PERIAPSIS":"546.128","TIME_SYSTEM":"UTC","SITE":"AFETR","OBJECT_NAME":"STARLINK-2473","LAUNCH_DATE":"2021-04-07","DECAY_DATE":null,"OBJECT_ID":"2021-027AR","RA_OF_ASC_NODE":"343.7599","REV_AT_EPOCH":"7285","EPOCH":"2022-07-22T19:12:20.846592","MEAN_ELEMENT_THEORY":"SGP4"},{"TIME_SYSTEM":"UTC","SITE":"AFETR","PERIAPSIS":"546.287","APOAPSIS":"548.166","FILE":"3519932","GP_ID":"208669775","ECCENTRICITY":"0.00013570","CLASSIFICATION_TYPE":"U","ELEMENT_SET_NO":"999","MEAN_ELEMENT_THEORY":"SGP4","OBJECT_ID":"2021-027AS","RA_OF_ASC_NODE":"3.5739","EPOCH":"2022-07-22T20:18:42.205248","REV_AT_EPOCH":"7257","DECAY_DATE":null,"OBJECT_NAME":"STARLINK-2474","LAUNCH_DATE":"2021-04-07","SEMIMAJOR_AXIS":"6925.362","PERIOD":"95.592","INCLINATION":"53.0559","REF_FRAME":"TEME","ARG_OF_PERICENTER":"85.3284","TLE_LINE2":"2 48132  53.0559   3.5739 0001357  85.3284 274.7860 15.06395760 72577","TLE_LINE1":"1 48132U 21027AS  22203.84632182 -.00000715  00000-0 -29086-4 0  9997","OBJECT_TYPE":"PAYLOAD","NORAD_CAT_ID":"48132","EPHEMERIS_TYPE":"0","MEAN_MOTION_DDOT":"0.0000000000000","BSTAR":"-0.00002908600000","COUNTRY_CODE":"US","MEAN_MOTION_DOT":"-0.00000715","CENTER_NAME":"EARTH","MEAN_ANOMALY":"274.7860","RCS_SIZE":"LARGE","MEAN_MOTION":"15.06395760"},{"OBJECT_TYPE":"PAYLOAD","TLE_LINE1":"1 48133U 21027AT  22203.44455237  .00001011  00000-0  86783-4 0  9993","TLE_LINE2":"2 48133  53.0564   5.3773 0001310  83.1379 276.9759 15.06400782 72529","ARG_OF_PERICENTER":"83.1379","REF_FRAME":"TEME","INCLINATION":"53.0564","PERIOD":"95.592","SEMIMAJOR_AXIS":"6925.346","MEAN_MOTION":"15.06400782","RCS_SIZE":"LARGE","MEAN_ANOMALY":"276.9759","MEAN_MOTION_DOT":"0.00001011","CENTER_NAME":"EARTH","COUNTRY_CODE":"US","BSTAR":"0.00008678300000","MEAN_MOTION_DDOT":"0.0000000000000","EPHEMERIS_TYPE":"0","NORAD_CAT_ID":"48133","CLASSIFICATION_TYPE":"U","ELEMENT_SET_NO":"999","ECCENTRICITY":"0.00013100","GP_ID":"208670026","APOAPSIS":"548.118","FILE":"3519932","PERIAPSIS":"546.304","SITE":"AFETR","TIME_SYSTEM":"UTC","LAUNCH_DATE":"2021-04-07","OBJECT_NAME":"STARLINK-2475","DECAY_DATE":null,"REV_AT_EPOCH":"7252","EPOCH":"2022-07-22T10:40:09.324768","RA_OF_ASC_NODE":"5.3773","OBJECT_ID":"2021-027AT","MEAN_ELEMENT_THEORY":"SGP4"},{"MEAN_ANOMALY":"275.0335","RCS_SIZE":"LARGE","MEAN_MOTION":"15.06402222","NORAD_CAT_ID":"48134","EPHEMERIS_TYPE":"0","MEAN_MOTION_DDOT":"0.0000000000000","BSTAR":"0.00018379000000","COUNTRY_CODE":"US","MEAN_MOTION_DOT":"0.00002457","CENTER_NAME":"EARTH","TLE_LINE2":"2 48134  53.0557   3.6518 0001267  85.0799 275.0335 15.06402222 72574","TLE_LINE1":"1 48134U 21027AU  22203.82789284  .00002457  00000-0  18379-3 0  9998","OBJECT_TYPE":"PAYLOAD","SEMIMAJOR_AXIS":"6925.342","INCLINATION":"53.0557","PERIOD":"95.592","REF_FRAME":"TEME","ARG_OF_PERICENTER":"85.0799","DECAY_DATE":null,"LAUNCH_DATE":"2021-04-07","OBJECT_NAME":"STARLINK-2476","MEAN_ELEMENT_THEORY":"SGP4","OBJECT_ID":"2021-027AU","RA_OF_ASC_NODE":"3.6518","REV_AT_EPOCH":"7257","EPOCH":"2022-07-22T19:52:09.941376","APOAPSIS":"548.084","FILE":"3519932","ECCENTRICITY":"0.00012670","GP_ID":"208670759","ELEMENT_SET_NO":"999","CLASSIFICATION_TYPE":"U","TIME_SYSTEM":"UTC","SITE":"AFETR","PERIAPSIS":"546.329"},{"MEAN_ELEMENT_THEORY":"SGP4","OBJECT_ID":"2021-027AV","RA_OF_ASC_NODE":"8.8019","REV_AT_EPOCH":"7250","EPOCH":"2022-07-22T19:54:12.149856","DECAY_DATE":null,"OBJECT_NAME":"STARLINK-2478","LAUNCH_DATE":"2021-04-07","SITE":"AFETR","TIME_SYSTEM":"UTC","PERIAPSIS":"546.396","FILE":"3519932","APOAPSIS":"548.106","CLASSIFICATION_TYPE":"U","ELEMENT_SET_NO":"999","ECCENTRICITY":"0.00012350","GP_ID":"208669025","EPHEMERIS_TYPE":"0","NORAD_CAT_ID":"48135","MEAN_MOTION_DDOT":"0.0000000000000","COUNTRY_CODE":"US","BSTAR":"-0.00005469300000","MEAN_MOTION_DOT":"-0.00001096","CENTER_NAME":"EARTH","RCS_SIZE":"LARGE","MEAN_ANOMALY":"264.5338","MEAN_MOTION":"15.06387815","SEMIMAJOR_AXIS":"6925.386","INCLINATION":"53.0565","PERIOD":"95.593","REF_FRAME":"TEME","ARG_OF_PERICENTER":"95.5792","OBJECT_TYPE":"PAYLOAD","TLE_LINE2":"2 48135  53.0565   8.8019 0001235  95.5792 264.5338 15.06387815 72500","TLE_LINE1":"1 48135U 21027AV  22203.82930729 -.00001096  00000-0 -54693-4 0  9991"},{"CLASSIFICATION_TYPE":"U","ELEMENT_SET_NO":"999","GP_ID":"208669275","ECCENTRICITY":"0.00013680","APOAPSIS":"548.177","FILE":"3519932","PERIAPSIS":"546.283","SITE":"AFETR","TIME_SYSTEM":"UTC","OBJECT_NAME":"STARLINK-2479","LAUNCH_DATE":"2021-04-07","DECAY_DATE":null,"REV_AT_EPOCH":"7249","EPOCH":"2022-07-22T06:08:07.130112","OBJECT_ID":"2021-027AW","RA_OF_ASC_NODE":"6.2017","MEAN_ELEMENT_THEORY":"SGP4","OBJECT_TYPE":"PAYLOAD","TLE_LINE1":"1 48136U 21027AW  22203.25563808 -.00000327  00000-0 -30780-5 0  9997","TLE_LINE2":"2 48136  53.0562   6.2017 0001368  80.8438 279.2706 15.06394631 72493","ARG_OF_PERICENTER":"80.8438","REF_FRAME":"TEME","PERIOD":"95.592","INCLINATION":"53.0562","SEMIMAJOR_AXIS":"6925.365","MEAN_MOTION":"15.06394631","RCS_SIZE":"LARGE","MEAN_ANOMALY":"279.2706","MEAN_MOTION_DOT":"-0.00000327","CENTER_NAME":"EARTH","COUNTRY_CODE":"US","BSTAR":"-0.00000307800000","MEAN_MOTION_DDOT":"0.0000000000000","EPHEMERIS_TYPE":"0","NORAD_CAT_ID":"48136"},{"ARG_OF_PERICENTER":"72.9102","REF_FRAME":"TEME","SEMIMAJOR_AXIS":"6925.366","PERIOD":"95.592","INCLINATION":"53.0562","TLE_LINE2":"2 48137  53.0562 343.6987 0001600  72.9102 287.2062 15.06394455 72855","TLE_LINE1":"1 48137U 21027AX  22203.81130064  .00001120  00000-0  94068-4 0  9992","OBJECT_TYPE":"PAYLOAD","BSTAR":"0.00009406800000","COUNTRY_CODE":"US","MEAN_MOTION_DOT":"0.00001120","CENTER_NAME":"EARTH","NORAD_CAT_ID":"48137","EPHEMERIS_TYPE":"0","MEAN_MOTION_DDOT":"0.0000000000000","MEAN_MOTION":"15.06394455","MEAN_ANOMALY":"287.2062","RCS_SIZE":"LARGE","PERIAPSIS":"546.122","TIME_SYSTEM":"UTC","SITE":"AFETR","ECCENTRICITY":"0.00016000","GP_ID":"208670527","CLASSIFICATION_TYPE":"U","ELEMENT_SET_NO":"999","FILE":"3519932","APOAPSIS":"548.339","RA_OF_ASC_NODE":"343.6987","OBJECT_ID":"2021-027AX","EPOCH":"2022-07-22T19:28:16.375296","REV_AT_EPOCH":"7285","MEAN_ELEMENT_THEORY":"SGP4","LAUNCH_DATE":"2021-04-07","OBJECT_NAME":"STARLINK-2480","DECAY_DATE":null},{"MEAN_ELEMENT_THEORY":"SGP4","REV_AT_EPOCH":"7258","EPOCH":"2022-07-22T20:08:05.787168","OBJECT_ID":"2021-027AY","RA_OF_ASC_NODE":"3.6096","DECAY_DATE":null,"OBJECT_NAME":"STARLINK-2481","LAUNCH_DATE":"2021-04-07","SITE":"AFETR","TIME_SYSTEM":"UTC","PERIAPSIS":"546.239","FILE":"3519932","APOAPSIS":"548.215","ELEMENT_SET_NO":"999","CLASSIFICATION_TYPE":"U","ECCENTRICITY":"0.00014270","GP_ID":"208670259","MEAN_MOTION_DDOT":"0.0000000000000","EPHEMERIS_TYPE":"0","NORAD_CAT_ID":"48138","MEAN_MOTION_DOT":"0.00002177","CENTER_NAME":"EARTH","COUNTRY_CODE":"US","BSTAR":"0.00016503000000","RCS_SIZE":"LARGE","MEAN_ANOMALY":"274.1107","MEAN_MOTION":"15.06395608","INCLINATION":"53.0542","PERIOD":"95.592","SEMIMAJOR_AXIS":"6925.362","ARG_OF_PERICENTER":"86.0045","REF_FRAME":"TEME","OBJECT_TYPE":"PAYLOAD","TLE_LINE1":"1 48138U 21027AY  22203.83895587  .00002177  00000-0  16503-3 0  9993","TLE_LINE2":"2 48138  53.0542   3.6096 0001427  86.0045 274.1107 15.06395608 72583"},{"OBJECT_TYPE":"PAYLOAD","TLE_LINE1":"1 48139U 21027AZ  22203.76338498  .00001070  00000-0  90717-4 0  9990","TLE_LINE2":"2 48139  53.0563 343.9441 0001356  86.6590 273.4554 15.06400850 72857","ARG_OF_PERICENTER":"86.6590","REF_FRAME":"TEME","PERIOD":"95.592","INCLINATION":"53.0563","SEMIMAJOR_AXIS":"6925.346","MEAN_MOTION":"15.06400850","RCS_SIZE":"LARGE","MEAN_ANOMALY":"273.4554","CENTER_NAME":"EARTH","MEAN_MOTION_DOT":"0.00001070","COUNTRY_CODE":"US","BSTAR":"0.00009071700000","MEAN_MOTION_DDOT":"0.0000000000000","EPHEMERIS_TYPE":"0","NORAD_CAT_ID":"48139","ELEMENT_SET_NO":"999","CLASSIFICATION_TYPE":"U","GP_ID":"208669526","ECCENTRICITY":"0.00013560","FILE":"3519932","APOAPSIS":"548.150","PERIAPSIS":"546.272","SITE":"AFETR","TIME_SYSTEM":"UTC","LAUNCH_DATE":"2021-04-07","OBJECT_NAME":"STARLINK-2482","DECAY_DATE":null,"EPOCH":"2022-07-22T18:19:16.462272","REV_AT_EPOCH":"7285","RA_OF_ASC_NODE":"343.9441","OBJECT_ID":"2021-027AZ","MEAN_ELEMENT_THEORY":"SGP4"}];
